NUSAT-48 (HENRIETTA LE*)
1 60498U 24149AG  26068.80506098  .00012988  00000+0  45212-3 0  9999
2 60498  97.3923 150.8264 0002754 263.3026  96.7901 15.29812597 86946
STARLINK-35264          
1 65900U 25224U   26068.26540740  .00039593  00000+0  13421-2 0  9996
2 65900  53.1603  13.0061 0001243  64.3975 295.7154 15.30192029 24804
